[{"OBJECT_NAME":"STARLINK-36813","OBJECT_ID":"2026-035P","EPOCH":"2026-03-06T06:00:02.000160","MEAN_MOTION":15.96351036,"ECCENTRICITY":9.752e-5,"INCLINATION":97.2709,"RA_OF_ASC_NODE":357.3523,"ARG_OF_PERICENTER":97.8191,"MEAN_ANOMALY":270.1973,"EPHEMERIS_TYPE":0,"CLASSIFICATION_TYPE":"U","NORAD_CAT_ID":67892,"ELEMENT_SET_NO":999,"REV_AT_EPOCH":320,"BSTAR":-0.0028321753,"MEAN_MOTION_DOT":-0.0116778,"MEAN_MOTION_DDOT":0.00041975746},{"OBJECT_NAME":"STARLINK-36803","OBJECT_ID":"2026-035Q","EPOCH":"2026-03-06T06:00:02.000160","MEAN_MOTION":15.96002856,"ECCENTRICITY":0.00011171,"INCLINATION":97.2726,"RA_OF_ASC_NODE":357.342,"ARG_OF_PERICENTER":113.2518,"MEAN_ANOMALY":226.142,"EPHEMERIS_TYPE":0,"CLASSIFICATION_TYPE":"U","NORAD_CAT_ID":67893,"ELEMENT_SET_NO":999,"REV_AT_EPOCH":320,"BSTAR":-0.0028026822,"MEAN_MOTION_DOT":-0.01134437,"MEAN_MOTION_DDOT":0.00039637047},{"OBJECT_NAME":"STARLINK-36846","OBJECT_ID":"2026-035R","EPOCH":"2026-03-06T06:00:02.000160","MEAN_MOTION":15.96102507,"ECCENTRICITY":0.00012674,"INCLINATION":97.2723,"RA_OF_ASC_NODE":357.3462,"ARG_OF_PERICENTER":122.9997,"MEAN_ANOMALY":226.69,"EPHEMERIS_TYPE":0,"CLASSIFICATION_TYPE":"U","NORAD_CAT_ID":67894,"ELEMENT_SET_NO":999,"REV_AT_EPOCH":320,"BSTAR":-0.0028029479,"MEAN_MOTION_DOT":-0.01140614,"MEAN_MOTION_DDOT":0.0004007963},{"OBJECT_NAME":"STARLINK-36866","OBJECT_ID":"2026-035S","EPOCH":"2026-03-06T06:00:02.000160","MEAN_MOTION":15.96165533,"ECCENTRICITY":0.00010973,"INCLINATION":97.2722,"RA_OF_ASC_NODE":357.348,"ARG_OF_PERICENTER":105.8147,"MEAN_ANOMALY":248.4217,"EPHEMERIS_TYPE":0,"CLASSIFICATION_TYPE":"U","NORAD_CAT_ID":67895,"ELEMENT_SET_NO":999,"REV_AT_EPOCH":320,"BSTAR":-0.0028173222,"MEAN_MOTION_DOT":-0.01150255,"MEAN_MOTION_DDOT":0.00040736716},{"OBJECT_NAME":"STARLINK-36877","OBJECT_ID":"2026-035T","EPOCH":"2026-03-06T06:00:02.000160","MEAN_MOTION":15.96049238,"ECCENTRICITY":9.982e-5,"INCLINATION":97.2723,"RA_OF_ASC_NODE":357.3439,"ARG_OF_PERICENTER":97.443,"MEAN_ANOMALY":247.2959,"EPHEMERIS_TYPE":0,"CLASSIFICATION_TYPE":"U","NORAD_CAT_ID":67896,"ELEMENT_SET_NO":999,"REV_AT_EPOCH":320,"BSTAR":-0.0028133337,"MEAN_MOTION_DOT":-0.01141518,"MEAN_MOTION_DDOT":0.0004011642},{"OBJECT_NAME":"STARLINK-36870","OBJECT_ID":"2026-035U","EPOCH":"2026-03-06T06:00:02.000160","MEAN_MOTION":15.96216399,"ECCENTRICITY":0.00010361,"INCLINATION":97.2718,"RA_OF_ASC_NODE":357.3498,"ARG_OF_PERICENTER":105.3268,"MEAN_ANOMALY":254.0448,"EPHEMERIS_TYPE":0,"CLASSIFICATION_TYPE":"U","NORAD_CAT_ID":67897,"ELEMENT_SET_NO":999,"REV_AT_EPOCH":320,"BSTAR":-0.0028224054,"MEAN_MOTION_DOT":-0.01155441,"MEAN_MOTION_DDOT":0.0004109957},{"OBJECT_NAME":"STARLINK-36810","OBJECT_ID":"2026-035V","EPOCH":"2026-03-06T06:00:02.000160","MEAN_MOTION":15.96285114,"ECCENTRICITY":0.00010013,"INCLINATION":97.2718,"RA_OF_ASC_NODE":357.3514,"ARG_OF_PERICENTER":100.3167,"MEAN_ANOMALY":263.2349,"EPHEMERIS_TYPE":0,"CLASSIFICATION_TYPE":"U","NORAD_CAT_ID":67898,"ELEMENT_SET_NO":999,"REV_AT_EPOCH":320,"BSTAR":-0.0028190102,"MEAN_MOTION_DOT":-0.01158309,"MEAN_MOTION_DDOT":0.00041318839},{"OBJECT_NAME":"STARLINK-36878","OBJECT_ID":"2026-035W","EPOCH":"2026-03-06T06:00:02.000160","MEAN_MOTION":15.96419379,"ECCENTRICITY":0.00011238,"INCLINATION":97.2717,"RA_OF_ASC_NODE":357.3548,"ARG_OF_PERICENTER":115.0893,"MEAN_ANOMALY":256.7898,"EPHEMERIS_TYPE":0,"CLASSIFICATION_TYPE":"U","NORAD_CAT_ID":67899,"ELEMENT_SET_NO":999,"REV_AT_EPOCH":320,"BSTAR":-0.0028120957,"MEAN_MOTION_DOT":-0.01163846,"MEAN_MOTION_DDOT":0.00041744358},{"OBJECT_NAME":"STARLINK-36361","OBJECT_ID":"2026-035X","EPOCH":"2026-03-06T06:00:02.000160","MEAN_MOTION":15.9648981,"ECCENTRICITY":0.00011049,"INCLINATION":97.2715,"RA_OF_ASC_NODE":357.3568,"ARG_OF_PERICENTER":109.893,"MEAN_ANOMALY":266.4909,"EPHEMERIS_TYPE":0,"CLASSIFICATION_TYPE":"U","NORAD_CAT_ID":67900,"ELEMENT_SET_NO":999,"REV_AT_EPOCH":320,"BSTAR":-0.0028216317,"MEAN_MOTION_DOT":-0.01172172,"MEAN_MOTION_DDOT":0.00042330605},{"OBJECT_NAME":"STARLINK-36336","OBJECT_ID":"2026-035Y","EPOCH":"2026-03-06T06:00:02.000160","MEAN_MOTION":15.96707789,"ECCENTRICITY":0.00010085,"INCLINATION":97.2724,"RA_OF_ASC_NODE":357.363,"ARG_OF_PERICENTER":108.3066,"MEAN_ANOMALY":281.7858,"EPHEMERIS_TYPE":0,"CLASSIFICATION_TYPE":"U","NORAD_CAT_ID":67901,"ELEMENT_SET_NO":999,"REV_AT_EPOCH":325,"BSTAR":-0.0028001653,"MEAN_MOTION_DOT":-0.01177021,"MEAN_MOTION_DDOT":0.00042754551},{"OBJECT_NAME":"STARLINK-36876","OBJECT_ID":"2026-035Z","EPOCH":"2026-03-06T06:00:02.000160","MEAN_MOTION":15.96559985,"ECCENTRICITY":0.00010877,"INCLINATION":97.2722,"RA_OF_ASC_NODE":357.3595,"ARG_OF_PERICENTER":113.4549,"MEAN_ANOMALY":266.9451,"EPHEMERIS_TYPE":0,"CLASSIFICATION_TYPE":"U","NORAD_CAT_ID":67902,"ELEMENT_SET_NO":999,"REV_AT_EPOCH":320,"BSTAR":-0.0027972418,"MEAN_MOTION_DOT":-0.01166513,"MEAN_MOTION_DDOT":0.00041984481},{"OBJECT_NAME":"STARLINK-36257","OBJECT_ID":"2026-035AA","EPOCH":"2026-03-06T06:00:02.000160","MEAN_MOTION":15.96634025,"ECCENTRICITY":0.00010013,"INCLINATION":97.2721,"RA_OF_ASC_NODE":357.3602,"ARG_OF_PERICENTER":108.4497,"MEAN_ANOMALY":276.1449,"EPHEMERIS_TYPE":0,"CLASSIFICATION_TYPE":"U","NORAD_CAT_ID":67903,"ELEMENT_SET_NO":999,"REV_AT_EPOCH":325,"BSTAR":-0.0027889153,"MEAN_MOTION_DOT":-0.01167695,"MEAN_MOTION_DDOT":0.00042096583},{"OBJECT_NAME":"STARLINK-36907","OBJECT_ID":"2026-037J","EPOCH":"2026-03-06T06:00:02.000160","MEAN_MOTION":15.91281018,"ECCENTRICITY":0.00014543,"INCLINATION":43.0001,"RA_OF_ASC_NODE":219.672,"ARG_OF_PERICENTER":276.8923,"MEAN_ANOMALY":174.2254,"EPHEMERIS_TYPE":0,"CLASSIFICATION_TYPE":"U","NORAD_CAT_ID":67940,"ELEMENT_SET_NO":999,"REV_AT_EPOCH":264,"BSTAR":-0.0046130202,"MEAN_MOTION_DOT":-0.01523568,"MEAN_MOTION_DDOT":0.00064848275},{"OBJECT_NAME":"STARLINK-36927","OBJECT_ID":"2026-037K","EPOCH":"2026-03-06T06:00:02.000160","MEAN_MOTION":15.9154415,"ECCENTRICITY":0.00014663,"INCLINATION":43,"RA_OF_ASC_NODE":219.6577,"ARG_OF_PERICENTER":276.194,"MEAN_ANOMALY":180.6402,"EPHEMERIS_TYPE":0,"CLASSIFICATION_TYPE":"U","NORAD_CAT_ID":67941,"ELEMENT_SET_NO":999,"REV_AT_EPOCH":264,"BSTAR":-0.0045214753,"MEAN_MOTION_DOT":-0.01513904,"MEAN_MOTION_DDOT":0.00064256862},{"OBJECT_NAME":"STARLINK-36892","OBJECT_ID":"2026-037N","EPOCH":"2026-03-06T06:00:02.000160","MEAN_MOTION":15.91407638,"ECCENTRICITY":0.00014886,"INCLINATION":42.9999,"RA_OF_ASC_NODE":219.6656,"ARG_OF_PERICENTER":275.6582,"MEAN_ANOMALY":178.307,"EPHEMERIS_TYPE":0,"CLASSIFICATION_TYPE":"U","NORAD_CAT_ID":67944,"ELEMENT_SET_NO":999,"REV_AT_EPOCH":264,"BSTAR":-0.0045296097,"MEAN_MOTION_DOT":-0.01506055,"MEAN_MOTION_DDOT":0.0006356317},{"OBJECT_NAME":"STARLINK-36908","OBJECT_ID":"2026-037P","EPOCH":"2026-03-06T06:00:02.000160","MEAN_MOTION":15.91657297,"ECCENTRICITY":0.00016826,"INCLINATION":43,"RA_OF_ASC_NODE":219.6489,"ARG_OF_PERICENTER":276.8547,"MEAN_ANOMALY":183.4999,"EPHEMERIS_TYPE":0,"CLASSIFICATION_TYPE":"U","NORAD_CAT_ID":67945,"ELEMENT_SET_NO":999,"REV_AT_EPOCH":264,"BSTAR":-0.0045222845,"MEAN_MOTION_DOT":-0.01523014,"MEAN_MOTION_DDOT":0.00065039458}]
